{"type": "FeatureCollection", "features": [ {"type": "Feature", "properties": {"norad_id": 58662, "name": "TIANMU-1 21", "group": "weather", "lat": 13.301555730144313, "lon": -79.38821486457138, "alt_km": 473.1843214168521, "timestamp": "2025-12-11T10:53:15.526715+00:00", "meta": {"OBJECT_NAME": "TIANMU-1 21", "OBJECT_ID": "2023-208C", "EPOCH": "2025-12-11T05:27:29.538144", "MEAN_MOTION": 15.314979, "ECCENTRICITY": 0.0005887, "INCLINATION": 97.4371, "RA_OF_ASC_NODE": 98.6151, "ARG_OF_PERICENTER": 266.579, "MEAN_ANOMALY": 93.4778, "EPHEMERIS_TYPE": 0, "CLASSIFICATION_TYPE": "U", "NORAD_CAT_ID": 58662, "ELEMENT_SET_NO": 999, "REV_AT_EPOCH": 10876, "BSTAR": 0.00055046, "MEAN_MOTION_DOT": 0.00016692, "MEAN_MOTION_DDOT": 0}, "tle": {"line1": "1 58662U 23208C   25345.22742521  .00016692  00000+0  55046-3 0  9992", "line2": "2 58662  97.4371  98.6151 0005887 266.5790  93.4778 15.31497900108762"}}, "geometry": {"type": "Point", "coordinates": [-79.38821486457138, 13.301555730144313]}}, {"type": "Feature", "properties": {"norad_id": 58663, "name": "TIANMU-1 22", "group": "weather", "lat": 71.43503586608523, "lon": -60.55632631601066, "alt_km": 478.04896333765737, "timestamp": "2025-12-11T10:53:15.526725+00:00", "meta": {"OBJECT_NAME": "TIANMU-1 22", "OBJECT_ID": "2023-208D", "EPOCH": "2025-12-11T05:42:15.464736", "MEAN_MOTION": 15.27563308, "ECCENTRICITY": 0.0002702, "INCLINATION": 97.4379, "RA_OF_ASC_NODE": 96.3372, "ARG_OF_PERICENTER": 295.3018, "MEAN_ANOMALY": 64.7941, "EPHEMERIS_TYPE": 0, "CLASSIFICATION_TYPE": "U", "NORAD_CAT_ID": 58663, "ELEMENT_SET_NO": 999, "REV_AT_EPOCH": 10860, "BSTAR": 0.00050527, "MEAN_MOTION_DOT": 0.00013558, "MEAN_MOTION_DDOT": 0}, "tle": {"line1": "1 58663U 23208D   25345.23767899  .00013558  00000+0  50527-3 0  9996", "line2": "2 58663  97.4379  96.3372 0002702 295.3018  64.7941 15.27563308108604"}}, "geometry": {"type": "Point", "coordinates": [-60.55632631601066, 71.43503586608523]}}, {"type": "Feature", "properties": {"norad_id": 58700, "name": "TIANMU-1 15", "group": "weather", "lat": -68.64672312379233, "lon": -32.662838181214, "alt_km": 497.01285104175076, "timestamp": "2025-12-11T10:53:15.526735+00:00", "meta": {"OBJECT_NAME": "TIANMU-1 15", "OBJECT_ID": "2024-004A", "EPOCH": "2025-12-11T05:04:08.266656", "MEAN_MOTION": 15.24647006, "ECCENTRICITY": 0.0005252, "INCLINATION": 97.4631, "RA_OF_ASC_NODE": 166.6867, "ARG_OF_PERICENTER": 305.0685, "MEAN_ANOMALY": 55.006, "EPHEMERIS_TYPE": 0, "CLASSIFICATION_TYPE": "U", "NORAD_CAT_ID": 58700, "ELEMENT_SET_NO": 999, "REV_AT_EPOCH": 10711, "BSTAR": 0.00044346, "MEAN_MOTION_DOT": 0.00010888, "MEAN_MOTION_DDOT": 0}, "tle": {"line1": "1 58700U 24004A   25345.21120679  .00010888  00000+0  44346-3 0  9995", "line2": "2 58700  97.4631 166.6867 0005252 305.0685  55.0060 15.24647006107114"}}, "geometry": {"type": "Point", "coordinates": [-32.662838181214, -68.64672312379233]}}, {"type": "Feature", "properties": {"norad_id": 58701, "name": "TIANMU-1 16", "group": "weather", "lat": -26.94011992036923, "lon": 170.13483616035282, "alt_km": 495.68862317471394, "timestamp": "2025-12-11T10:53:15.526746+00:00", "meta": {"OBJECT_NAME": "TIANMU-1 16", "OBJECT_ID": "2024-004B", "EPOCH": "2025-12-11T04:42:17.996832", "MEAN_MOTION": 15.24398494, "ECCENTRICITY": 0.0004586, "INCLINATION": 97.4571, "RA_OF_ASC_NODE": 166.0617, "ARG_OF_PERICENTER": 303.2615, "MEAN_ANOMALY": 56.8183, "EPHEMERIS_TYPE": 0, "CLASSIFICATION_TYPE": "U", "NORAD_CAT_ID": 58701, "ELEMENT_SET_NO": 999, "REV_AT_EPOCH": 10711, "BSTAR": 0.00046335, "MEAN_MOTION_DOT": 0.00011295, "MEAN_MOTION_DDOT": 0}, "tle": {"line1": "1 58701U 24004B   25345.19604163  .00011295  00000+0  46335-3 0  9991", "line2": "2 58701  97.4571 166.0617 0004586 303.2615  56.8183 15.24398494107116"}}, "geometry": {"type": "Point", "coordinates": [170.13483616035282, -26.94011992036923]}}, {"type": "Feature", "properties": {"norad_id": 58702, "name": "TIANMU-1 17", "group": "weather", "lat": 56.42357012233905, "lon": 155.3418194027314, "alt_km": 488.00417064580324, "timestamp": "2025-12-11T10:53:15.526756+00:00", "meta": {"OBJECT_NAME": "TIANMU-1 17", "OBJECT_ID": "2024-004C", "EPOCH": "2025-12-11T04:20:10.929984", "MEAN_MOTION": 15.24442723, "ECCENTRICITY": 0.0003768, "INCLINATION": 97.4605, "RA_OF_ASC_NODE": 166.4557, "ARG_OF_PERICENTER": 307.3382, "MEAN_ANOMALY": 52.7511, "EPHEMERIS_TYPE": 0, "CLASSIFICATION_TYPE": "U", "NORAD_CAT_ID": 58702, "ELEMENT_SET_NO": 999, "REV_AT_EPOCH": 10710, "BSTAR": 0.00043451, "MEAN_MOTION_DOT": 0.00010599, "MEAN_MOTION_DDOT": 0}, "tle": {"line1": "1 58702U 24004C   25345.18068206  .00010599  00000+0  43451-3 0  9995", "line2": "2 58702  97.4605 166.4557 0003768 307.3382  52.7511 15.24442723107103"}}, "geometry": {"type": "Point", "coordinates": [155.3418194027314, 56.42357012233905]}}, {"type": "Feature", "properties": {"norad_id": 58703, "name": "TIANMU-1 18", "group": "weather", "lat": 30.85203691798785, "lon": -8.586795159379223, "alt_km": 492.8790711828851, "timestamp": "2025-12-11T10:53:15.526766+00:00", "meta": {"OBJECT_NAME": "TIANMU-1 18", "OBJECT_ID": "2024-004D", "EPOCH": "2025-12-11T03:56:08.149344", "MEAN_MOTION": 15.24430654, "ECCENTRICITY": 0.0003107, "INCLINATION": 97.4622, "RA_OF_ASC_NODE": 166.6341, "ARG_OF_PERICENTER": 308.0391, "MEAN_ANOMALY": 52.0565, "EPHEMERIS_TYPE": 0, "CLASSIFICATION_TYPE": "U", "NORAD_CAT_ID": 58703, "ELEMENT_SET_NO": 999, "REV_AT_EPOCH": 10710, "BSTAR": 0.00040764, "MEAN_MOTION_DOT": 9.935e-05, "MEAN_MOTION_DDOT": 0}, "tle": {"line1": "1 58703U 24004D   25345.16398321  .00009935  00000+0  40764-3 0  9994", "line2": "2 58703  97.4622 166.6341 0003107 308.0391  52.0565 15.24430654107103"}}, "geometry": {"type": "Point", "coordinates": [-8.586795159379223, 30.85203691798785]}}, {"type": "Feature", "properties": {"norad_id": 58990, "name": "INSAT-3DS", "group": "weather", "lat": -0.020409105587376505, "lon": -34.17677556187203, "alt_km": 35781.91310103558, "timestamp": "2025-12-11T10:53:15.526777+00:00", "meta": {"OBJECT_NAME": "INSAT-3DS", "OBJECT_ID": "2024-033A", "EPOCH": "2025-12-11T03:37:49.059264", "MEAN_MOTION": 1.00275093, "ECCENTRICITY": 0.0001555, "INCLINATION": 0.0367, "RA_OF_ASC_NODE": 130.251, "ARG_OF_PERICENTER": 135.2929, "MEAN_ANOMALY": 311.1059, "EPHEMERIS_TYPE": 0, "CLASSIFICATION_TYPE": "U", "NORAD_CAT_ID": 58990, "ELEMENT_SET_NO": 999, "REV_AT_EPOCH": 4518, "BSTAR": 0, "MEAN_MOTION_DOT": -1.51e-06, "MEAN_MOTION_DDOT": 0}, "tle": {"line1": "1 58990U 24033A   25345.15126226 -.00000151  00000+0  00000+0 0  9993", "line2": "2 58990   0.0367 130.2510 0001555 135.2929 311.1059  1.00275093 45183"}}, "geometry": {"type": "Point", "coordinates": [-34.17677556187203, -0.020409105587376505]}}, {"type": "Feature", "properties": {"norad_id": 59051, "name": "METEOR-M2 4", "group": "weather", "lat": 72.93799027692775, "lon": -87.45368490406618, "alt_km": 808.7201922326549, "timestamp": "2025-12-11T10:53:15.526788+00:00", "meta": {"OBJECT_NAME": "METEOR-M2 4", "OBJECT_ID": "2024-039A", "EPOCH": "2025-12-11T03:46:57.271584", "MEAN_MOTION": 14.22400904, "ECCENTRICITY": 0.0007124, "INCLINATION": 98.6764, "RA_OF_ASC_NODE": 302.0913, "ARG_OF_PERICENTER": 3.0911, "MEAN_ANOMALY": 357.031, "EPHEMERIS_TYPE": 0, "CLASSIFICATION_TYPE": "U", "NORAD_CAT_ID": 59051, "ELEMENT_SET_NO": 999, "REV_AT_EPOCH": 9253, "BSTAR": 5.9678e-05, "MEAN_MOTION_DOT": 8.9e-07, "MEAN_MOTION_DDOT": 0}, "tle": {"line1": "1 59051U 24039A   25345.15760731  .00000089  00000+0  59678-4 0  9992", "line2": "2 59051  98.6764 302.0913 0007124   3.0911 357.0310 14.22400904 92532"}}, "geometry": {"type": "Point", "coordinates": [-87.45368490406618, 72.93799027692775]}}, {"type": "Feature", "properties": {"norad_id": 60133, "name": "GOES 19", "group": "weather", "lat": -0.00011662293610699262, "lon": 168.53175972146636, "alt_km": 35790.656305495366, "timestamp": "2025-12-11T10:53:15.526802+00:00", "meta": {"OBJECT_NAME": "GOES 19", "OBJECT_ID": "2024-119A", "EPOCH": "2025-12-11T02:52:53.361120", "MEAN_MOTION": 1.00271118, "ECCENTRICITY": 0.0001331, "INCLINATION": 0.0124, "RA_OF_ASC_NODE": 101.3226, "ARG_OF_PERICENTER": 208.3753, "MEAN_ANOMALY": 98.4272, "EPHEMERIS_TYPE": 0, "CLASSIFICATION_TYPE": "U", "NORAD_CAT_ID": 60133, "ELEMENT_SET_NO": 999, "REV_AT_EPOCH": 507, "BSTAR": 0, "MEAN_MOTION_DOT": -2.43e-06, "MEAN_MOTION_DDOT": 0}, "tle": {"line1": "1 60133U 24119A   25345.12006205 -.00000243  00000+0  00000+0 0  9993", "line2": "2 60133   0.0124 101.3226 0001331 208.3753  98.4272  1.00271118  5078"}}, "geometry": {"type": "Point", "coordinates": [168.53175972146636, -0.00011662293610699262]}}, {"type": "Feature", "properties": {"norad_id": 65815, "name": "FENGYUN 3H", "group": "weather", "lat": -34.0076684555141, "lon": -69.02716464599776, "alt_km": 832.0619940699744, "timestamp": "2025-12-11T10:53:15.526815+00:00", "meta": {"OBJECT_NAME": "FENGYUN 3H", "OBJECT_ID": "2025-219A", "EPOCH": "2025-12-11T04:17:05.092224", "MEAN_MOTION": 14.1990399, "ECCENTRICITY": 6.08e-05, "INCLINATION": 98.6583, "RA_OF_ASC_NODE": 284.8029, "ARG_OF_PERICENTER": 89.3681, "MEAN_ANOMALY": 270.7565, "EPHEMERIS_TYPE": 0, "CLASSIFICATION_TYPE": "U", "NORAD_CAT_ID": 65815, "ELEMENT_SET_NO": 999, "REV_AT_EPOCH": 1070, "BSTAR": 0.000101, "MEAN_MOTION_DOT": 1.71e-06, "MEAN_MOTION_DDOT": 0}, "tle": {"line1": "1 65815U 25219A   25345.17853116  .00000171  00000+0  10100-3 0  9998", "line2": "2 65815  98.6583 284.8029 0000608  89.3681 270.7565 14.19903990 10703"}}, "geometry": {"type": "Point", "coordinates": [-69.02716464599776, -34.0076684555141]}}]}